[{"OBJECT_NAME":"STARLINK-1967","OBJECT_ID":"2021-009W","EPOCH":"2026-03-09T22:00:01.999584","MEAN_MOTION":15.623797,"ECCENTRICITY":0.00048402,"INCLINATION":53.0461,"RA_OF_ASC_NODE":3.8123,"ARG_OF_PERICENTER":79.3428,"MEAN_ANOMALY":112.5848,"EPHEMERIS_TYPE":0,"CLASSIFICATION_TYPE":"U","NORAD_CAT_ID":47568,"ELEMENT_SET_NO":999,"REV_AT_EPOCH":571,"BSTAR":0.0014990146,"MEAN_MOTION_DOT":0.00137094,"MEAN_MOTION_DDOT":0},{"OBJECT_NAME":"HAWK-3A","OBJECT_ID":"2021-059CG","EPOCH":"2026-03-09T11:39:03.628224","MEAN_MOTION":15.61551971,"ECCENTRICITY":0.00052261,"INCLINATION":97.6805,"RA_OF_ASC_NODE":259.1386,"ARG_OF_PERICENTER":339.6521,"MEAN_ANOMALY":20.4527,"EPHEMERIS_TYPE":0,"CLASSIFICATION_TYPE":"U","NORAD_CAT_ID":48957,"ELEMENT_SET_NO":999,"REV_AT_EPOCH":26225,"BSTAR":0.00045883562,"MEAN_MOTION_DOT":0.00039356,"MEAN_MOTION_DDOT":0}]
